{"fetched_at":"2026-07-14T17:40:21.416Z","source":"https://celestrak.org/NORAD/elements/gp.php?GROUP=kuiper&FORMAT=JSON","constellation":"kuiper","records":[{"OBJECT_NAME":"KUIPER-00117","OBJECT_ID":"2025-228C","EPOCH":"2026-07-14T05:58:32.134656","CLASSIFICATION_TYPE":"U","MEAN_MOTION":14.79935002,"ECCENTRICITY":0.0000803,"INCLINATION":51.8977,"RA_OF_ASC_NODE":158.4291,"ARG_OF_PERICENTER":66.2278,"MEAN_ANOMALY":293.8768,"EPHEMERIS_TYPE":0,"NORAD_CAT_ID":65949,"ELEMENT_SET_NO":999,"REV_AT_EPOCH":4200,"BSTAR":0.00021717,"MEAN_MOTION_DOT":0.00001435,"MEAN_MOTION_DDOT":0},{"OBJECT_NAME":"KUIPER-00121","OBJECT_ID":"2025-228D","EPOCH":"2026-07-14T06:54:53.455680","CLASSIFICATION_TYPE":"U","MEAN_MOTION":14.79946392,"ECCENTRICITY":0.0000803,"INCLINATION":51.8999,"RA_OF_ASC_NODE":153.2665,"ARG_OF_PERICENTER":83.3809,"MEAN_ANOMALY":276.7245,"EPHEMERIS_TYPE":0,"NORAD_CAT_ID":65950,"ELEMENT_SET_NO":999,"REV_AT_EPOCH":4208,"BSTAR":0.00054795,"MEAN_MOTION_DOT":0.0000396,"MEAN_MOTION_DDOT":0},{"OBJECT_NAME":"KUIPER-00122","OBJECT_ID":"2025-228E","EPOCH":"2026-07-14T08:16:35.770944","CLASSIFICATION_TYPE":"U","MEAN_MOTION":14.79941689,"ECCENTRICITY":0.0000662,"INCLINATION":51.8985,"RA_OF_ASC_NODE":162.9912,"ARG_OF_PERICENTER":66.8793,"MEAN_ANOMALY":293.2239,"EPHEMERIS_TYPE":0,"NORAD_CAT_ID":65951,"ELEMENT_SET_NO":999,"REV_AT_EPOCH":4195,"BSTAR":0.00021549,"MEAN_MOTION_DOT":0.00001422,"MEAN_MOTION_DDOT":0},{"OBJECT_NAME":"KUIPER-00123","OBJECT_ID":"2025-228F","EPOCH":"2026-07-14T07:28:00.240096","CLASSIFICATION_TYPE":"U","MEAN_MOTION":14.79928624,"ECCENTRICITY":0.0000728,"INCLINATION":51.8979,"RA_OF_ASC_NODE":163.1528,"ARG_OF_PERICENTER":59.2147,"MEAN_ANOMALY":300.8886,"EPHEMERIS_TYPE":0,"NORAD_CAT_ID":65952,"ELEMENT_SET_NO":999,"REV_AT_EPOCH":4194,"BSTAR":0.00022041,"MEAN_MOTION_DOT":0.00001459,"MEAN_MOTION_DDOT":0},{"OBJECT_NAME":"KUIPER-00124","OBJECT_ID":"2025-228G","EPOCH":"2026-07-14T06:02:23.997696","CLASSIFICATION_TYPE":"U","MEAN_MOTION":14.79927689,"ECCENTRICITY":0.0000683,"INCLINATION":51.898,"RA_OF_ASC_NODE":155.9035,"ARG_OF_PERICENTER":76.2219,"MEAN_ANOMALY":283.8819,"EPHEMERIS_TYPE":0,"NORAD_CAT_ID":65953,"ELEMENT_SET_NO":999,"REV_AT_EPOCH":4204,"BSTAR":0.0002469,"MEAN_MOTION_DOT":0.00001661,"MEAN_MOTION_DDOT":0},{"OBJECT_NAME":"KUIPER-00125","OBJECT_ID":"2025-228H","EPOCH":"2026-07-14T04:48:28.397952","CLASSIFICATION_TYPE":"U","MEAN_MOTION":14.79938841,"ECCENTRICITY":0.0000872,"INCLINATION":51.8994,"RA_OF_ASC_NODE":141.1758,"ARG_OF_PERICENTER":77.3226,"MEAN_ANOMALY":282.7834,"EPHEMERIS_TYPE":0,"NORAD_CAT_ID":65954,"ELEMENT_SET_NO":999,"REV_AT_EPOCH":4224,"BSTAR":0.00024758,"MEAN_MOTION_DOT":0.00001667,"MEAN_MOTION_DDOT":0},{"OBJECT_NAME":"KUIPER-00126","OBJECT_ID":"2025-228J","EPOCH":"2026-07-14T06:43:15.641760","CLASSIFICATION_TYPE":"U","MEAN_MOTION":14.79927355,"ECCENTRICITY":0.0000719,"INCLINATION":51.8996,"RA_OF_ASC_NODE":160.8084,"ARG_OF_PERICENTER":75.8807,"MEAN_ANOMALY":284.2236,"EPHEMERIS_TYPE":0,"NORAD_CAT_ID":65955,"ELEMENT_SET_NO":999,"REV_AT_EPOCH":4197,"BSTAR":0.00023349,"MEAN_MOTION_DOT":0.00001559,"MEAN_MOTION_DDOT":0},{"OBJECT_NAME":"KUIPER-00127","OBJECT_ID":"2025-228K","EPOCH":"2026-07-14T06:30:36.839808","CLASSIFICATION_TYPE":"U","MEAN_MOTION":14.79931961,"ECCENTRICITY":0.0000809,"INCLINATION":51.9002,"RA_OF_ASC_NODE":153.3187,"ARG_OF_PERICENTER":73.4132,"MEAN_ANOMALY":286.6919,"EPHEMERIS_TYPE":0,"NORAD_CAT_ID":65956,"ELEMENT_SET_NO":999,"REV_AT_EPOCH":4208,"BSTAR":0.00023838,"MEAN_MOTION_DOT":0.00001596,"MEAN_MOTION_DDOT":0},{"OBJECT_NAME":"KUIPER-00128","OBJECT_ID":"2025-228L","EPOCH":"2026-07-14T06:06:18.359424","CLASSIFICATION_TYPE":"U","MEAN_MOTION":14.79928003,"ECCENTRICITY":0.0000685,"INCLINATION":51.9011,"RA_OF_ASC_NODE":153.4585,"ARG_OF_PERICENTER":73.7262,"MEAN_ANOMALY":286.3776,"EPHEMERIS_TYPE":0,"NORAD_CAT_ID":65957,"ELEMENT_SET_NO":999,"REV_AT_EPOCH":4207,"BSTAR":0.00021824,"MEAN_MOTION_DOT":0.00001443,"MEAN_MOTION_DDOT":0},{"OBJECT_NAME":"KUIPER-00129","OBJECT_ID":"2025-228M","EPOCH":"2026-07-14T02:10:57.362016","CLASSIFICATION_TYPE":"U","MEAN_MOTION":14.79930745,"ECCENTRICITY":0.0000829,"INCLINATION":51.8992,"RA_OF_ASC_NODE":149.162,"ARG_OF_PERICENTER":72.8226,"MEAN_ANOMALY":287.2827,"EPHEMERIS_TYPE":0,"NORAD_CAT_ID":65958,"ELEMENT_SET_NO":999,"REV_AT_EPOCH":4212,"BSTAR":0.0000026566,"MEAN_MOTION_DOT":-0.00000201,"MEAN_MOTION_DDOT":0},{"OBJECT_NAME":"KUIPER-00130","OBJECT_ID":"2025-228N","EPOCH":"2026-07-14T07:47:23.850240","CLASSIFICATION_TYPE":"U","MEAN_MOTION":14.7993181,"ECCENTRICITY":0.0000723,"INCLINATION":51.9022,"RA_OF_ASC_NODE":150.6625,"ARG_OF_PERICENTER":86.683,"MEAN_ANOMALY":273.4215,"EPHEMERIS_TYPE":0,"NORAD_CAT_ID":65959,"ELEMENT_SET_NO":999,"REV_AT_EPOCH":3241,"BSTAR":0.0002413,"MEAN_MOTION_DOT":0.00001619,"MEAN_MOTION_DDOT":0},{"OBJECT_NAME":"KUIPER-00134","OBJECT_ID":"2025-228P","EPOCH":"2026-07-14T08:38:58.895232","CLASSIFICATION_TYPE":"U","MEAN_MOTION":15.4183455,"ECCENTRICITY":0.0006913,"INCLINATION":51.8712,"RA_OF_ASC_NODE":65.1009,"ARG_OF_PERICENTER":53.1161,"MEAN_ANOMALY":307.046,"EPHEMERIS_TYPE":0,"NORAD_CAT_ID":65960,"ELEMENT_SET_NO":999,"REV_AT_EPOCH":4331,"BSTAR":0.00051077,"MEAN_MOTION_DOT":0.00021673,"MEAN_MOTION_DDOT":0},{"OBJECT_NAME":"KUIPER-00135","OBJECT_ID":"2025-228Q","EPOCH":"2026-07-14T06:58:49.467648","CLASSIFICATION_TYPE":"U","MEAN_MOTION":14.79937873,"ECCENTRICITY":0.0000807,"INCLINATION":51.9013,"RA_OF_ASC_NODE":150.8662,"ARG_OF_PERICENTER":74.2296,"MEAN_ANOMALY":285.8755,"EPHEMERIS_TYPE":0,"NORAD_CAT_ID":65961,"ELEMENT_SET_NO":999,"REV_AT_EPOCH":4211,"BSTAR":0.00023601,"MEAN_MOTION_DOT":0.00001579,"MEAN_MOTION_DDOT":0},{"OBJECT_NAME":"KUIPER-00136","OBJECT_ID":"2025-228R","EPOCH":"2026-07-14T06:14:03.733152","CLASSIFICATION_TYPE":"U","MEAN_MOTION":14.79932695,"ECCENTRICITY":0.000076,"INCLINATION":51.9,"RA_OF_ASC_NODE":148.4583,"ARG_OF_PERICENTER":72.2932,"MEAN_ANOMALY":287.8113,"EPHEMERIS_TYPE":0,"NORAD_CAT_ID":65962,"ELEMENT_SET_NO":999,"REV_AT_EPOCH":4214,"BSTAR":0.00024099,"MEAN_MOTION_DOT":0.00001616,"MEAN_MOTION_DDOT":0},{"OBJECT_NAME":"KUIPER-00137","OBJECT_ID":"2025-228S","EPOCH":"2026-07-14T06:17:41.500032","CLASSIFICATION_TYPE":"U","MEAN_MOTION":14.79966103,"ECCENTRICITY":0.0000732,"INCLINATION":51.903,"RA_OF_ASC_NODE":145.9409,"ARG_OF_PERICENTER":50.5555,"MEAN_ANOMALY":309.5472,"EPHEMERIS_TYPE":0,"NORAD_CAT_ID":65963,"ELEMENT_SET_NO":999,"REV_AT_EPOCH":4218,"BSTAR":-0.0011646,"MEAN_MOTION_DOT":-0.00009095,"MEAN_MOTION_DDOT":0},{"OBJECT_NAME":"KUIPER-00138","OBJECT_ID":"2025-228T","EPOCH":"2026-07-14T05:33:12.204000","CLASSIFICATION_TYPE":"U","MEAN_MOTION":14.79932472,"ECCENTRICITY":0.0000808,"INCLINATION":51.8977,"RA_OF_ASC_NODE":143.5081,"ARG_OF_PERICENTER":71.5101,"MEAN_ANOMALY":288.5949,"EPHEMERIS_TYPE":0,"NORAD_CAT_ID":65964,"ELEMENT_SET_NO":999,"REV_AT_EPOCH":4221,"BSTAR":0.000040512,"MEAN_MOTION_DOT":8.8e-7,"MEAN_MOTION_DDOT":0}]}
