[
  {
    "name": "KUIPER-00117",
    "noradId": "65949",
    "line1": "1 65949U 25228C   26195.24898304  .00001435  00000+0  21717-3 0  9996",
    "line2": "2 65949  51.8977 158.4291 0000803  66.2278 293.8768 14.79935002 42003"
  },
  {
    "name": "KUIPER-00121",
    "noradId": "65950",
    "line1": "1 65950U 25228D   26195.28811870  .00003960  00000+0  54795-3 0  9992",
    "line2": "2 65950  51.8999 153.2665 0000803  83.3809 276.7245 14.79946392 42089"
  },
  {
    "name": "KUIPER-00122",
    "noradId": "65951",
    "line1": "1 65951U 25228E   26195.34485846  .00001422  00000+0  21549-3 0  9992",
    "line2": "2 65951  51.8985 162.9912 0000662  66.8793 293.2239 14.79941689 41954"
  },
  {
    "name": "KUIPER-00123",
    "noradId": "65952",
    "line1": "1 65952U 25228F   26195.31111389  .00001459  00000+0  22041-3 0  9996",
    "line2": "2 65952  51.8979 163.1528 0000728  59.2147 300.8886 14.79928624 41942"
  },
  {
    "name": "KUIPER-00124",
    "noradId": "65953",
    "line1": "1 65953U 25228G   26195.25166664  .00001661  00000+0  24690-3 0  9993",
    "line2": "2 65953  51.8980 155.9035 0000683  76.2219 283.8819 14.79927689 42044"
  },
  {
    "name": "KUIPER-00125",
    "noradId": "65954",
    "line1": "1 65954U 25228H   26195.20032868  .00001667  00000+0  24758-3 0  9998",
    "line2": "2 65954  51.8994 141.1758 0000872  77.3226 282.7834 14.79938841 42248"
  },
  {
    "name": "KUIPER-00126",
    "noradId": "65955",
    "line1": "1 65955U 25228J   26195.28004215  .00001559  00000+0  23349-3 0  9997",
    "line2": "2 65955  51.8996 160.8084 0000719  75.8807 284.2236 14.79927355 41979"
  },
  {
    "name": "KUIPER-00127",
    "noradId": "65956",
    "line1": "1 65956U 25228K   26195.27125972  .00001596  00000+0  23838-3 0  9995",
    "line2": "2 65956  51.9002 153.3187 0000809  73.4132 286.6919 14.79931961 42080"
  },
  {
    "name": "KUIPER-00128",
    "noradId": "65957",
    "line1": "1 65957U 25228L   26195.25437916  .00001443  00000+0  21824-3 0  9992",
    "line2": "2 65957  51.9011 153.4585 0000685  73.7262 286.3776 14.79928003 42073"
  },
  {
    "name": "KUIPER-00129",
    "noradId": "65958",
    "line1": "1 65958U 25228M   26195.09094169 -.00000201  00000+0  26566-5 0  9996",
    "line2": "2 65958  51.8992 149.1620 0000829  72.8226 287.2827 14.79930745 42122"
  },
  {
    "name": "KUIPER-00130",
    "noradId": "65959",
    "line1": "1 65959U 25228N   26195.32458160  .00001619  00000+0  24130-3 0  9994",
    "line2": "2 65959  51.9022 150.6625 0000723  86.6830 273.4215 14.79931810 32410"
  },
  {
    "name": "KUIPER-00134",
    "noradId": "65960",
    "line1": "1 65960U 25228P   26195.36040388  .00021673  00000+0  51077-3 0  9991",
    "line2": "2 65960  51.8712  65.1009 0006913  53.1161 307.0460 15.41834550 43316"
  },
  {
    "name": "KUIPER-00135",
    "noradId": "65961",
    "line1": "1 65961U 25228Q   26195.29085032  .00001579  00000+0  23601-3 0  9994",
    "line2": "2 65961  51.9013 150.8662 0000807  74.2296 285.8755 14.79937873 42117"
  },
  {
    "name": "KUIPER-00136",
    "noradId": "65962",
    "line1": "1 65962U 25228R   26195.25976543  .00001616  00000+0  24099-3 0  9991",
    "line2": "2 65962  51.9000 148.4583 0000760  72.2932 287.8113 14.79932695 42142"
  },
  {
    "name": "KUIPER-00137",
    "noradId": "65963",
    "line1": "1 65963U 25228S   26195.26228588 -.00009095  00000+0 -11646-2 0  9996",
    "line2": "2 65963  51.9030 145.9409 0000732  50.5555 309.5472 14.79966103 42189"
  },
  {
    "name": "KUIPER-00138",
    "noradId": "65964",
    "line1": "1 65964U 25228T   26195.23139125  .00000088  00000+0  40512-4 0  9999",
    "line2": "2 65964  51.8977 143.5081 0000808  71.5101 288.5949 14.79932472 42214"
  }
]